H1 CPF  2 CNE 2024 11 20  0 325 01 saral           NONE
H2  1300901 3201    39086 2024  11 20  0  0  0 2024  11 24  0  0  0  180 1 1   0 0 0  1
H9
10 0 60634  64800.000000  0      -7160368.126        210368.031        155249.970
10 0 60634  64980.000000  0      -6992993.745        495924.075       1472236.157
10 0 60634  65160.000000  0      -6574428.632        756484.649       2737462.308
10 0 60634  65340.000000  0      -5920115.751        976563.064       3906442.478
10 0 60634  65520.000000  0      -5054165.452       1142612.364       4938103.969
10 0 60634  65700.000000  0      -4008415.464       1243714.774       5796244.864
10 0 60634  65880.000000  0      -2821207.894       1272145.172       6450797.029
10 0 60634  66060.000000  0      -1535938.304       1223785.102       6878859.899
10 0 60634  66240.000000  0       -199434.881       1098371.001       7065471.421
10 0 60634  66420.000000  0       1139761.469        899566.618       7004100.718
10 0 60634  66600.000000  0       2433159.821        634858.344       6696864.120
10 0 60634  66780.000000  0       3634074.885        315276.718       6154460.940
10 0 60634  66960.000000  0       4699324.241        -45048.683       5395826.767
10 0 60634  67140.000000  0       5590809.295       -429487.589       4447505.389
10 0 60634  67320.000000  0       6276923.949       -819639.303       3342750.932
10 0 60634  67500.000000  0       6733734.683      -1196165.323       2120377.065
10 0 60634  67680.000000  0       6945871.903      -1539688.002        823384.651
10 0 60634  67860.000000  0       6907087.992      -1831713.544       -502579.537
10 0 60634  68040.000000  0       6620450.887      -2055533.695      -1810876.477
10 0 60634  68220.000000  0       6098157.311      -2197056.862      -3055565.380
10 0 60634  68400.000000  0       5360979.946      -2245527.466      -4193053.663
10 0 60634  68580.000000  0       4437385.841      -2194098.606      -5183635.704
10 0 60634  68760.000000  0       3362375.665      -2040234.432      -5992864.549
10 0 60634  68940.000000  0       2176103.600      -1785926.617      -6592706.775
10 0 60634  69120.000000  0        922349.245      -1437718.964      -6962456.568
10 0 60634  69300.000000  0       -353103.916      -1006542.748      -7089393.255
10 0 60634  69480.000000  0      -1604123.584       -507372.188      -6969173.319
10 0 60634  69660.000000  0      -2785868.373         41290.261      -6605959.851
10 0 60634  69840.000000  0      -3856366.353        618085.152      -6012287.777
10 0 60634  70020.000000  0      -4777990.876       1199603.933      -5208671.967
10 0 60634  70200.000000  0      -5518795.899       1761311.414      -4222956.638
10 0 60634  70380.000000  0      -6053662.508       2278556.107      -3089408.889
10 0 60634  70560.000000  0      -6365205.953       2727625.922      -1847570.374
10 0 60634  70740.000000  0      -6444401.363       3086804.289       -540897.605
10 0 60634  70920.000000  0      -6290890.075       3337377.505        784768.619
10 0 60634  71100.000000  0      -5912940.221       3464539.600       2082846.254
10 0 60634  71280.000000  0      -5327056.770       3458147.259       3307693.644
10 0 60634  71460.000000  0      -4557263.142       3313284.911       4416255.379
10 0 60634  71640.000000  0      -3634091.134       3030610.708       5369602.699
10 0 60634  71820.000000  0      -2593334.045       2616470.685       6134305.434
10 0 60634  72000.000000  0      -1474621.598       2082778.862       6683591.526
10 0 60634  72180.000000  0       -319880.886       1446667.384       6998254.965
10 0 60634  72360.000000  0        828246.914        729924.643       7067293.495
10 0 60634  72540.000000  0       1927981.498        -41757.362       6888272.743
10 0 60634  72720.000000  0       2939922.444       -839703.362       6467410.550
10 0 60634  72900.000000  0       3828467.096      -1633317.569       5819379.981
10 0 60634  73080.000000  0       4563083.739      -2391255.495       4966828.036
10 0 60634  73260.000000  0       5119393.029      -3082664.773       3939617.100
10 0 60634  73440.000000  0       5480020.029      -3678449.968       2773804.576
10 0 60634  73620.000000  0       5635175.267      -4152505.572       1510379.611
10 0 60634  73800.000000  0       5582931.519      -4482858.756        193802.841
10 0 60634  73980.000000  0       5329183.426      -4652665.157      -1129595.954
10 0 60634  74160.000000  0       4887288.771      -4651005.172      -2413297.290
10 0 60634  74340.000000  0       4277408.278      -4473438.506      -3612272.920
10 0 60634  74520.000000  0       3525581.744      -4122292.377      -4684592.943
10 0 60634  74700.000000  0       2662592.098      -3606673.431      -5592893.102
10 0 60634  74880.000000  0       1722678.003      -2942210.526      -6305646.383
10 0 60634  75060.000000  0        742161.479      -2150550.762      -6798205.209
10 0 60634  75240.000000  0       -241956.660      -1258629.229      -7053597.374
10 0 60634  75420.000000  0      -1193379.009       -297740.918      -7063055.380
10 0 60634  75600.000000  0      -2077825.318        697548.428      -6826282.107
10 0 60634  75780.000000  0      -2864244.221       1690623.040      -6351454.068
10 0 60634  75960.000000  0      -3525887.948       2644137.321      -5654965.279
10 0 60634  76140.000000  0      -4041225.666       3521401.820      -4760913.792
10 0 60634  76320.000000  0      -4394666.415       4287792.864      -3700326.045
10 0 60634  76500.000000  0      -4577056.450       4912130.929      -2510129.912
10 0 60634  76680.000000  0      -4585930.315       5367970.861      -1231903.207
10 0 60634  76860.000000  0      -4425502.172       5634745.205         89570.570
10 0 60634  77040.000000  0      -4106386.499       5698699.721       1407892.944
10 0 60634  77220.000000  0      -3645057.202       5553567.159       2676720.694
10 0 60634  77400.000000  0      -3063066.322       5200939.156       3851443.832
10 0 60634  77580.000000  0      -2386063.153       4650317.891       4890788.187
10 0 60634  77760.000000  0      -1642670.037       3918851.750       5758281.264
10 0 60634  77940.000000  0       -863268.412       3030767.548       6423528.111
10 0 60634  78120.000000  0        -78752.704       2016528.970       6863252.175
10 0 60634  78300.000000  0        680692.941        911763.037       7062077.719
10 0 60634  78480.000000  0       1386753.119       -244006.345       7013041.198
10 0 60634  78660.000000  0       2014034.505      -1408774.818       6717823.370
10 0 60634  78840.000000  0       2540981.602      -2539584.051       6186700.806
10 0 60634  79020.000000  0       2950627.652      -3594111.661       5438213.208
10 0 60634  79200.000000  0       3231154.798      -4532271.988       4498548.144
10 0 60634  79380.000000  0       3376243.749      -5317770.032       3400654.731
10 0 60634  79560.000000  0       3385198.096      -5919546.565       2183102.760
10 0 60634  79740.000000  0       3262833.372      -6313047.601        888720.712
10 0 60634  79920.000000  0       3019134.752      -6481254.061       -436937.573
10 0 60634  80100.000000  0       2668700.932      -6415423.387      -1747238.780
10 0 60634  80280.000000  0       2229995.357      -6115497.709      -2996162.014
10 0 60634  80460.000000  0       1724445.763      -5590159.826      -4139955.909
10 0 60634  80640.000000  0       1175439.230      -4856534.687      -5138688.493
10 0 60634  80820.000000  0        607272.295      -3939564.544      -5957624.963
10 0 60634  81000.000000  0         44103.410      -2871099.588      -6568394.498
10 0 60634  81180.000000  0       -491048.079      -1688746.835      -6949915.457
10 0 60634  81360.000000  0       -977216.492       -434527.173      -7089063.496
10 0 60634  81540.000000  0      -1396287.191        846612.045      -6981077.290
10 0 60634  81720.000000  0      -1733654.924       2108381.887      -6629699.333
10 0 60634  81900.000000  0      -1978724.417       3304791.505      -6047056.929
10 0 60634  82080.000000  0      -2125241.764       4391802.784      -5253284.685
10 0 60634  82260.000000  0      -2171446.390       5328952.418      -4275885.184
10 0 60634  82440.000000  0      -2120036.935       6080884.341      -3148830.853
10 0 60634  82620.000000  0      -1977947.212       6618727.627      -1911425.690
10 0 60634  82800.000000  0      -1755940.415       6921262.152       -606956.532
10 0 60634  82980.000000  0      -1468037.085       6975810.670        718825.568
10 0 60634  83160.000000  0      -1130800.034       6778810.587       2019341.246
10 0 60634  83340.000000  0       -762509.218       6336014.577       3248869.743
10 0 60634  83520.000000  0       -382270.683       5662312.907       4364195.173
10 0 60634  83700.000000  0         -9107.118       4781199.671       5326152.213
10 0 60634  83880.000000  0        338929.750       3723898.058       6101010.428
10 0 60634  84060.000000  0        645580.525       2528201.986       6661638.959
10 0 60634  84240.000000  0        897095.862       1237084.471       6988429.881
10 0 60634  84420.000000  0       1082824.303       -102871.991       7069953.613
10 0 60634  84600.000000  0       1195649.250      -1443163.298       6903337.862
10 0 60634  84780.000000  0       1232260.390      -2735120.710       6494368.785
10 0 60634  84960.000000  0       1193250.392      -3931685.217       5857306.024
10 0 60634  85140.000000  0       1083032.959      -4989138.325       5014410.184
10 0 60634  85320.000000  0        909588.850      -5868727.589       3995197.542
10 0 60634  85500.000000  0        684047.798      -6538137.937       2835434.808
10 0 60634  85680.000000  0        420119.631      -6972739.182       1575890.056
10 0 60634  85860.000000  0        133398.768      -7156547.686        260885.328
10 0 60634  86040.000000  0       -159424.767      -7082856.073      -1063301.393
10 0 60634  86220.000000  0       -441407.718      -6754483.102      -2350118.958
99